ONEWEB-0574             
1 56063U 23043T   23312.38520174 -.00000269  00000+0 -68255-3 0  9990
2 56063  87.9240  73.4590 0001217 112.8449 247.2814 13.21825340 32530
ONEWEB-0575             
1 56064U 23043U   23312.91667824  .00000015  00000+0  00000+0 0  9991
2 56064  87.6845  58.4085 0001358  62.2097 232.4438 13.66169969 34632
ONEWEB-0576             
1 56065U 23043V   23312.91667824  .00000015  00000+0  00000+0 0  9992
2 56065  87.6944  58.3967 0002310  50.0187 148.5473 13.64510873 34633
ONEWEB-0577             
1 56066U 23043W   23312.91667824  .00000015  00000+0  00000+0 0  9993
2 56066  87.6727  58.4300 0004337  81.2276 161.9416 13.67148688 34653
ONEWEB-0578             
1 56067U 23043X   23312.75108057  .00000130  00000+0  28244-3 0  9996
2 56067  87.9241  73.3808 0001714 103.6642 256.4683 13.21826684 33451
ONEWEB-0579             
1 56068U 23043Y   23312.36313295  .00000187  00000+0  42126-3 0  9993
2 56068  87.9237  73.4603 0001451  81.5943 278.5355 13.21828377 32504
ONEWEB-0581             
1 56069U 23043Z   23312.91667824  .00000015  00000+0  00000+0 0  9996
2 56069  87.7057  58.4659 0002656  22.6123  90.6603 13.63864863 34621
ONEWEB-0609             
1 56070U 23043AA  23312.78262902 -.00000022  00000+0 -92930-4 0  9999
2 56070  87.8955  88.6319 0001416  99.3979 260.7311 13.15550678 32258
